$$SOE
2461295.500000000, A.D. 2026-Sep-12 00:00:00.0000, -4.495580587979409E+08, 1.442413518854589E+08, 9.292081230353251E+07,
2461302.500000000, A.D. 2026-Sep-19 00:00:00.0000, -4.541750514788351E+08, 1.357496642485125E+08, 9.149941490491340E+07,
2461309.500000000, A.D. 2026-Sep-26 00:00:00.0000, -4.585961074858160E+08, 1.271995518785557E+08, 9.003850848845854E+07,
2461316.500000000, A.D. 2026-Oct-03 00:00:00.0000, -4.628212423034934E+08, 1.185952318684013E+08, 8.853910216021483E+07,
2461323.500000000, A.D. 2026-Oct-10 00:00:00.0000, -4.668505454529013E+08, 1.099408607413997E+08, 8.700220029853074E+07,
2461330.500000000, A.D. 2026-Oct-17 00:00:00.0000, -4.706841774364963E+08, 1.012405347901602E+08, 8.542880221716544E+07,
2461337.500000000, A.D. 2026-Oct-24 00:00:00.0000, -4.743223668085783E+08, 9.249829039886966E+07, 8.381990185489769E+07,
2461344.500000000, A.D. 2026-Oct-31 00:00:00.0000, -4.777654072705600E+08, 8.371810427547835E+07, 8.217648747531411E+07,
2461351.500000000, A.D. 2026-Nov-07 00:00:00.0000, -4.810136544499814E+08, 7.490389366120878E+07, 8.049954135002553E+07,
2461358.500000000, A.D. 2026-Nov-14 00:00:00.0000, -4.840675221600112E+08, 6.605951739843587E+07, 7.879003947777697E+07,
2461365.500000000, A.D. 2026-Nov-21 00:00:00.0000, -4.869274799489956E+08, 5.718877853247710E+07, 7.704895155985707E+07,
2461372.500000000, A.D. 2026-Nov-28 00:00:00.0000, -4.895940529370553E+08, 4.829542543354847E+07, 7.527724107639526E+07,
2461379.500000000, A.D. 2026-Dec-05 00:00:00.0000, -4.920678203185081E+08, 3.938315077834436E+07, 7.347586507689561E+07,
2461386.500000000, A.D. 2026-Dec-12 00:00:00.0000, -4.943494123613080E+08, 3.045559149784727E+07, 7.164577392269768E+07,
2461393.500000000, A.D. 2026-Dec-19 00:00:00.0000, -4.964395077875489E+08, 2.151632969235514E+07, 6.978791115363468E+07,
2461400.500000000, A.D. 2026-Dec-26 00:00:00.0000, -4.983388316759329E+08, 1.256889364087852E+07, 6.790321342004912E+07,
2461407.500000000, A.D. 2027-Jan-02 00:00:00.0000, -5.000481536090719E+08, 3.616758710274898E+06, 6.599261043836662E+07,
2461414.500000000, A.D. 2027-Jan-09 00:00:00.0000, -5.015682859470683E+08, -5.336651818960581E+06, 6.405702496013041E+07,
2461421.500000000, A.D. 2027-Jan-16 00:00:00.0000, -5.029000821904097E+08, -1.428796600443774E+07, 6.209737275085230E+07,
2461428.500000000, A.D. 2027-Jan-23 00:00:00.0000, -5.040444353844892E+08, -2.323386261352766E+07, 6.011456257001454E+07,
2461435.500000000, A.D. 2027-Jan-30 00:00:00.0000, -5.050022763760275E+08, -3.217107066539370E+07, 5.810949612981686E+07,
2461442.500000000, A.D. 2027-Feb-06 00:00:00.0000, -5.057745714943861E+08, -4.109636880630916E+07, 5.608306802020752E+07,
2461449.500000000, A.D. 2027-Feb-13 00:00:00.0000, -5.063623201159590E+08, -5.000658330206030E+07, 5.403616574090147E+07,
2461456.500000000, A.D. 2027-Feb-20 00:00:00.0000, -5.067665544745345E+08, -5.889858544236068E+07, 5.196966999158239E+07,
2461463.500000000, A.D. 2027-Feb-27 00:00:00.0000, -5.069883403224400E+08, -6.776929157409224E+07, 4.988445482897885E+07,
2461470.500000000, A.D. 2027-Mar-06 00:00:00.0000, -5.070287754244401E+08, -7.661566384199642E+07, 4.778138757047711E+07,
2461477.500000000, A.D. 2027-Mar-13 00:00:00.0000, -5.068889874824127E+08, -8.543470958803950E+07, 4.566132875758285E+07,
2461484.500000000, A.D. 2027-Mar-20 00:00:00.0000, -5.065701326176569E+08, -9.422348024547397E+07, 4.352513221357970E+07,
2461491.500000000, A.D. 2027-Mar-27 00:00:00.0000, -5.060733942067797E+08, -1.029790702779255E+08, 4.137364513109884E+07,
2461498.500000000, A.D. 2027-Apr-03 00:00:00.0000, -5.053999818660581E+08, -1.116986162122659E+08, 3.920770816628721E+07,
2461505.500000000, A.D. 2027-Apr-10 00:00:00.0000, -5.045511305204378E+08, -1.203792957432184E+08, 3.702815553510559E+07,
2461512.500000000, A.D. 2027-Apr-17 00:00:00.0000, -5.035280995324527E+08, -1.290183269252367E+08, 3.483581510791999E+07,
2461519.500000000, A.D. 2027-Apr-24 00:00:00.0000, -5.023321718095092E+08, -1.376129675151936E+08, 3.263150848951561E+07,
2461526.500000000, A.D. 2027-May-01 00:00:00.0000, -5.009646525879321E+08, -1.461605144393806E+08, 3.041605105890746E+07,
2461533.500000000, A.D. 2027-May-08 00:00:00.0000, -4.994268675845727E+08, -1.546583026375089E+08, 2.819025200156093E+07,
2461540.500000000, A.D. 2027-May-15 00:00:00.0000, -4.977201620110248E+08, -1.631037023312807E+08, 2.595491454888163E+07,
2461547.500000000, A.D. 2027-May-22 00:00:00.0000, -4.958459020130464E+08, -1.714941173103946E+08, 2.371083635627401E+07,
2461554.500000000, A.D. 2027-May-29 00:00:00.0000, -4.938054751789621E+08, -1.798269857051328E+08, 2.145880959175396E+07,
2461561.500000000, A.D. 2027-Jun-05 00:00:00.0000, -4.916002892311431E+08, -1.880997801135614E+08, 1.919962090970711E+07,
2461568.500000000, A.D. 2027-Jun-12 00:00:00.0000, -4.892317709057537E+08, -1.963100066513866E+08, 1.693405152895242E+07,
2461575.500000000, A.D. 2027-Jun-19 00:00:00.0000, -4.867013653496891E+08, -2.044552038601089E+08, 1.466287736882544E+07,
2461582.500000000, A.D. 2027-Jun-26 00:00:00.0000, -4.840105357540067E+08, -2.125329417356333E+08, 1.238686919615518E+07,
2461589.500000000, A.D. 2027-Jul-03 00:00:00.0000, -4.811607630907511E+08, -2.205408208695781E+08, 1.010679277164117E+07,
2461596.500000000, A.D. 2027-Jul-10 00:00:00.0000, -4.781535459152568E+08, -2.284764716948516E+08, 7.823408992959827E+06,
2461603.500000000, A.D. 2027-Jul-17 00:00:00.0000, -4.749904001963851E+08, -2.363375538746094E+08, 5.537474028114706E+06,
2461610.500000000, A.D. 2027-Jul-24 00:00:00.0000, -4.716728590170836E+08, -2.441217558976756E+08, 3.249739419577599E+06,
2461617.500000000, A.D. 2027-Jul-31 00:00:00.0000, -4.682024717326990E+08, -2.518267946451559E+08, 9.609521407609433E+05,
2461624.500000000, A.D. 2027-Aug-07 00:00:00.0000, -4.645808027864971E+08, -2.594504137766759E+08, -1.328145282651693E+06,
2461631.500000000, A.D. 2027-Aug-14 00:00:00.0000, -4.608094324821185E+08, -2.669903811899219E+08, -3.616814396256164E+06,
2461638.500000000, A.D. 2027-Aug-21 00:00:00.0000, -4.568899590940621E+08, -2.744444889186366E+08, -5.904320517202690E+06,
2461645.500000000, A.D. 2027-Aug-28 00:00:00.0000, -4.528239988853591E+08, -2.818105542665476E+08, -8.189932727783650E+06,
2461652.500000000, A.D. 2027-Sep-04 00:00:00.0000, -4.486131852132489E+08, -2.890864196746286E+08, -1.047292384976311E+07,
2461659.500000000, A.D. 2027-Sep-11 00:00:00.0000, -4.442591681170567E+08, -2.962699519825864E+08, -1.275257032585475E+07,
2461666.500000000, A.D. 2027-Sep-18 00:00:00.0000, -4.397636142540386E+08, -3.033590417345998E+08, -1.502815207411487E+07,
2461673.500000000, A.D. 2027-Sep-25 00:00:00.0000, -4.351282069535723E+08, -3.103516026066816E+08, -1.729895234300250E+07,
2461680.500000000, A.D. 2027-Oct-02 00:00:00.0000, -4.303546463137703E+08, -3.172455709274832E+08, -1.956425757208696E+07,
2461687.500000000, A.D. 2027-Oct-09 00:00:00.0000, -4.254446493167497E+08, -3.240389052963648E+08, -2.182335726109980E+07,
2461694.500000000, A.D. 2027-Oct-16 00:00:00.0000, -4.203999498978886E+08, -3.307295863533764E+08, -2.407554385784993E+07,
2461701.500000000, A.D. 2027-Oct-23 00:00:00.0000, -4.152222987080586E+08, -3.373156167072066E+08, -2.632011268956892E+07,
2461708.500000000, A.D. 2027-Oct-30 00:00:00.0000, -4.099134621936257E+08, -3.437950204113535E+08, -2.855636192246917E+07,
2461715.500000000, A.D. 2027-Nov-06 00:00:00.0000, -4.044752221574628E+08, -3.501658408606783E+08, -3.078359235088529E+07,
2461722.500000000, A.D. 2027-Nov-13 00:00:00.0000, -3.989093777861691E+08, -3.564261391847844E+08, -3.300110700384662E+07,
2461729.500000000, A.D. 2027-Nov-20 00:00:00.0000, -3.932177472418771E+08, -3.625739953247076E+08, -3.520821101414496E+07,
2461736.500000000, A.D. 2027-Nov-27 00:00:00.0000, -3.874021672016341E+08, -3.686075088285902E+08, -3.740421165614483E+07,
2461743.500000000, A.D. 2027-Dec-04 00:00:00.0000, -3.814644923676817E+08, -3.745247984517924E+08, -3.958841829204302E+07,
2461750.500000000, A.D. 2027-Dec-11 00:00:00.0000, -3.754065954982959E+08, -3.803240015248785E+08, -4.176014225480606E+07,
2461757.500000000, A.D. 2027-Dec-18 00:00:00.0000, -3.692303676832762E+08, -3.860032734285851E+08, -4.391869672069959E+07,
2461764.500000000, A.D. 2027-Dec-25 00:00:00.0000, -3.629377187115029E+08, -3.915607871783331E+08, -4.606339658556888E+07,
2461771.500000000, A.D. 2028-Jan-01 00:00:00.0000, -3.565305774888979E+08, -3.969947331041748E+08, -4.819355834752181E+07,
$$EOE